{
"type": "FeatureCollection",
"name": "engativa",
"crs": { "type": "name", "properties": { "name": "urn:ogc:def:crs:OGC:1.3:CRS84" } },
"features": [
{ "type": "Feature", "properties": { "LocNombre": "ENGATIVA", "LocAAdmini": "Acuerdo 8 de 1977", "LocArea": 35880967.347099997, "LocCodigo": "10", "SHAPE_Leng": 0.29196621565000003, "SHAPE_Area": 0.0029222461 }, "geometry": { "type": "MultiPolygon", "coordinates": [ [ [ [ -74.155469585999924, 4.717982196000094 ], [ -74.155469584999935, 4.717982202000087 ], [ -74.155664738999917, 4.718077387000051 ], [ -74.155979364999951, 4.718185589000086 ], [ -74.156156046999911, 4.718007511000053 ], [ -74.156240466999918, 4.717393823000066 ], [ -74.156348493999928, 4.717175700000041 ], [ -74.156783490999942, 4.717449955000063 ], [ -74.157081448999918, 4.71785058100005 ], [ -74.157539602999918, 4.718268111000043 ], [ -74.157917840999914, 4.718737436000083 ], [ -74.158166154999947, 4.718941545000064 ], [ -74.158467446999907, 4.719189133000043 ], [ -74.158702246999951, 4.719394960000045 ], [ -74.159222929999942, 4.719703472000049 ], [ -74.159680452999908, 4.719845748000068 ], [ -74.160115000999951, 4.719965155000068 ], [ -74.160344215999942, 4.720234077000043 ], [ -74.160477209999897, 4.720973411000045 ], [ -74.160478475999923, 4.721506558000044 ], [ -74.160393969999916, 4.722074508000048 ], [ -74.160246843999914, 4.722722636000071 ], [ -74.160065299999928, 4.723273501000051 ], [ -74.159769328999914, 4.723841724000067 ], [ -74.159410285999911, 4.724295507000079 ], [ -74.15901141899991, 4.724777946000074 ], [ -74.158560744999932, 4.725168906000079 ], [ -74.157938699999931, 4.725531482000065 ], [ -74.157412968999949, 4.725549836000084 ], [ -74.157081581999932, 4.725567826000088 ], [ -74.15689273299995, 4.725470743000074 ], [ -74.157017427999904, 4.725000330000057 ], [ -74.157347639999898, 4.724449193000055 ], [ -74.157507474999932, 4.724334121000084 ], [ -74.15748990499992, 4.724162190000072 ], [ -74.157105988999945, 4.723710130000086 ], [ -74.156534035999925, 4.723470587000065 ], [ -74.155767830999935, 4.723277418000066 ], [ -74.155413379999914, 4.723238007000077 ], [ -74.154767546999949, 4.72320510600008 ], [ -74.154241727999931, 4.723200586000075 ], [ -74.153698878999933, 4.723173107000093 ], [ -74.153372899999908, 4.723105040000064 ], [ -74.152589665999926, 4.72291186700005 ], [ -74.152080695999928, 4.722769586000084 ], [ -74.15150333899993, 4.722713630000044 ], [ -74.1511033889999, 4.722731708000083 ], [ -74.150720916999944, 4.72291032600009 ], [ -74.150356821999935, 4.723690881000039 ], [ -74.150123372999929, 4.724035373000049 ], [ -74.149804418999906, 4.724529105000045 ], [ -74.149479876999919, 4.725045889000057 ], [ -74.149234733999947, 4.725464634000048 ], [ -74.148572003999902, 4.725889174000088 ], [ -74.147728120999943, 4.726282481000055 ], [ -74.146603697999922, 4.726892705000068 ], [ -74.146072949999905, 4.727203500000087 ], [ -74.145279503999916, 4.727618106000079 ], [ -74.144640142999947, 4.727923392000093 ], [ -74.144126428999925, 4.728228325000089 ], [ -74.143487205999918, 4.728591023000092 ], [ -74.142876350999927, 4.728879076000055 ], [ -74.142396706999932, 4.729046370000049 ], [ -74.141705467999941, 4.729145368000047 ], [ -74.140911457999948, 4.729324872000063 ], [ -74.140346076999947, 4.729486795000071 ], [ -74.139718045999928, 4.729746102000092 ], [ -74.138895942999909, 4.73013781800006 ], [ -74.138582067999948, 4.730316199000072 ], [ -74.138347945999953, 4.730414144000065 ], [ -74.138073980999934, 4.730575366000039 ], [ -74.137696965999908, 4.730639269000051 ], [ -74.137394283999924, 4.730725914000061 ], [ -74.137068514999953, 4.73070380200005 ], [ -74.136919361999901, 4.730463194000038 ], [ -74.136683777999906, 4.729873224000073 ], [ -74.136511122999934, 4.729317435000041 ], [ -74.136189036999951, 4.72839519300004 ], [ -74.136005953999927, 4.728292294000084 ], [ -74.135571643999924, 4.728293271000041 ], [ -74.135000211999909, 4.728317479000054 ], [ -74.13447488199995, 4.728513509000038 ], [ -74.133789552999929, 4.728710027000091 ], [ -74.133172852999905, 4.728940727000065 ], [ -74.132436554999913, 4.72933794700009 ], [ -74.131951691999916, 4.729757558000074 ], [ -74.13155263099992, 4.730194122000057 ], [ -74.131428024999934, 4.730710427000076 ], [ -74.130976953999948, 4.730877713000041 ], [ -74.130582554999933, 4.730867107000051 ], [ -74.130039075999946, 4.730587290000074 ], [ -74.129541350999943, 4.730330497000068 ], [ -74.129391922999901, 4.729969620000077 ], [ -74.129602406999936, 4.72952203400007 ], [ -74.129663947999916, 4.728931223000075 ], [ -74.129645663999952, 4.728398108000079 ], [ -74.129370104999907, 4.727825364000068 ], [ -74.129059917999939, 4.727103611000075 ], [ -74.128927737999902, 4.726771407000058 ], [ -74.128607672999919, 4.726743430000056 ], [ -74.128145753999945, 4.727180203000046 ], [ -74.127627371999949, 4.727932363000093 ], [ -74.127158054999938, 4.728392377000091 ], [ -74.127177934999906, 4.728416339000091 ], [ -74.126543798999933, 4.728955304000067 ], [ -74.126310334999914, 4.729328444000089 ], [ -74.126031011999942, 4.729661627000041 ], [ -74.126129289999938, 4.730188901000076 ], [ -74.126324521999948, 4.730589807000058 ], [ -74.126857527999903, 4.731322565000085 ], [ -74.127327381999919, 4.731860520000055 ], [ -74.12753964299992, 4.732249857000056 ], [ -74.127861539999913, 4.733137813000042 ], [ -74.128154966999944, 4.734002898000085 ], [ -74.12835206099993, 4.735275297000044 ], [ -74.128302121999923, 4.735957682000048 ], [ -74.127914224999927, 4.736296829000082 ], [ -74.127211700999908, 4.736447400000088 ], [ -74.12665783999995, 4.736677974000088 ], [ -74.126630074999923, 4.737044974000071 ], [ -74.127219236999906, 4.737295932000052 ], [ -74.127353577999941, 4.737303530000077 ], [ -74.127379944999916, 4.737305030000073 ], [ -74.127416704999916, 4.73884627800004 ], [ -74.127281403999916, 4.739068940000038 ], [ -74.127164122999943, 4.739305584000078 ], [ -74.126775828999939, 4.739664604000041 ], [ -74.126536138999938, 4.739835425000081 ], [ -74.126129618999926, 4.740017823000073 ], [ -74.125774698999919, 4.740097824000088 ], [ -74.1254456879999, 4.740118573000075 ], [ -74.125049243999911, 4.74005838800008 ], [ -74.1245275039999, 4.73998047200007 ], [ -74.122955452999918, 4.739744108000082 ], [ -74.122162917999901, 4.739596193000068 ], [ -74.121569516999898, 4.73958366700009 ], [ -74.121129641999914, 4.739529691000087 ], [ -74.120690259999947, 4.739436806000072 ], [ -74.120573275999902, 4.739309258000048 ], [ -74.120573299999933, 4.738789351000094 ], [ -74.120597103999899, 4.738544509000064 ], [ -74.120599944999924, 4.737985690000073 ], [ -74.12059910499994, 4.737878133000038 ], [ -74.120503311999926, 4.737700518000054 ], [ -74.120290523999927, 4.737562445000037 ], [ -74.120123914999908, 4.737386168000057 ], [ -74.12000693199991, 4.737254101000076 ], [ -74.119786617999921, 4.736999220000087 ], [ -74.119649714999923, 4.736823369000092 ], [ -74.119315084999926, 4.736576110000044 ], [ -74.119004525999912, 4.73641161900008 ], [ -74.118645324999932, 4.736299102000089 ], [ -74.118412045999946, 4.736328116000038 ], [ -74.117815060999931, 4.736246872000038 ], [ -74.117216457999916, 4.736110613000051 ], [ -74.116934616999913, 4.736015332000079 ], [ -74.116710780999938, 4.73584971400004 ], [ -74.116523547999918, 4.735684524000078 ], [ -74.116359545999899, 4.735483033000094 ], [ -74.116158244999951, 4.735166573000072 ], [ -74.116014162999932, 4.735018120000063 ], [ -74.11583487899992, 4.73493555500005 ], [ -74.11548905099994, 4.734848531000068 ], [ -74.114994698999908, 4.734768560000077 ], [ -74.1146030459999, 4.73469459800009 ], [ -74.114471144999925, 4.734482167000067 ], [ -74.114341010999908, 4.734141344000079 ], [ -74.114288649999935, 4.733955255000069 ], [ -74.114224389999947, 4.733810056000038 ], [ -74.114176391999933, 4.733642329000077 ], [ -74.114132970999947, 4.733476790000054 ], [ -74.114115739999932, 4.733226866000052 ], [ -74.114123354999947, 4.732993322000084 ], [ -74.114124625999921, 4.732899468000085 ], [ -74.114124706999917, 4.732720940000092 ], [ -74.114113950999922, 4.732500813000058 ], [ -74.114130857999953, 4.732258235000074 ], [ -74.114089121999939, 4.73213393900005 ], [ -74.114026337999917, 4.732050743000059 ], [ -74.113945180999906, 4.731969526000057 ], [ -74.113804049999942, 4.731940138000084 ], [ -74.113667492999923, 4.73190849100007 ], [ -74.113558177999948, 4.731888714000092 ], [ -74.113312797999924, 4.731798446000084 ], [ -74.113034133999918, 4.731551469000067 ], [ -74.112874787999942, 4.731250051000075 ], [ -74.112586977999911, 4.730926097000065 ], [ -74.112355125999898, 4.73065610000009 ], [ -74.111958426999934, 4.730258766000077 ], [ -74.111528009999915, 4.729885228000057 ], [ -74.111309596999945, 4.72971113400007 ], [ -74.111062956999945, 4.729603988000065 ], [ -74.110890922999943, 4.729571069000087 ], [ -74.110593311999935, 4.729540683000039 ], [ -74.110355180999932, 4.72951369000009 ], [ -74.109986062999951, 4.729338176000056 ], [ -74.109736822999935, 4.729109773000062 ], [ -74.109528699999942, 4.728772688000049 ], [ -74.109371887999941, 4.728484901000058 ], [ -74.109228871999903, 4.72820149000006 ], [ -74.109090290999916, 4.727913348000072 ], [ -74.1089011709999, 4.727610304000052 ], [ -74.108684873999948, 4.72742695900007 ], [ -74.108346240999936, 4.727182026000094 ], [ -74.108108966999907, 4.726980883000067 ], [ -74.107724229999917, 4.726716241000076 ], [ -74.10741824899992, 4.726612691000071 ], [ -74.107269668999947, 4.726391213000056 ], [ -74.107097995999936, 4.726266700000053 ], [ -74.10693540199992, 4.726137099000084 ], [ -74.106788084999948, 4.725977558000068 ], [ -74.106603176999897, 4.725873661000094 ], [ -74.106363426999906, 4.725876542000037 ], [ -74.106205463999913, 4.725969186000043 ], [ -74.106019490999927, 4.726032873000065 ], [ -74.105890528999907, 4.726092820000076 ], [ -74.105545756999902, 4.726100141000074 ], [ -74.105387311999948, 4.726059946000078 ], [ -74.105101668999907, 4.72605223000005 ], [ -74.104858185999944, 4.726096280000093 ], [ -74.10422658199991, 4.725933315000077 ], [ -74.104091792999952, 4.72582377100008 ], [ -74.103979465999942, 4.725587890000043 ], [ -74.104020231999925, 4.725463318000038 ], [ -74.104003293999938, 4.725092418000088 ], [ -74.104078578999918, 4.724545324000076 ], [ -74.104042912999944, 4.724261993000084 ], [ -74.104067354999927, 4.724013906000039 ], [ -74.103981918999921, 4.723754510000049 ], [ -74.10385783299995, 4.723608105000039 ], [ -74.103688271999943, 4.723476525000081 ], [ -74.103435792999903, 4.723309984000082 ], [ -74.103143471999942, 4.723203961000081 ], [ -74.102855591999912, 4.722983039000042 ], [ -74.102685830999917, 4.722732324000049 ], [ -74.102504522999936, 4.722474969000075 ], [ -74.102349328999935, 4.722262742000055 ], [ -74.102142534999928, 4.722097616000042 ], [ -74.10190448599991, 4.721965044000058 ], [ -74.101480531999925, 4.72190088900004 ], [ -74.101156604999915, 4.721811316000071 ], [ -74.100783618999913, 4.721674921000044 ], [ -74.100564150999901, 4.72155583600005 ], [ -74.100467094999942, 4.72139523900006 ], [ -74.100427485999944, 4.721141637000073 ], [ -74.10039301799992, 4.720805480000081 ], [ -74.100448018999941, 4.720487974000093 ], [ -74.100478439999904, 4.720306340000093 ], [ -74.100427638999918, 4.720062129000041 ], [ -74.100373599999898, 4.719774629000085 ], [ -74.100365946999943, 4.719518134000054 ], [ -74.100416720999931, 4.719219131000045 ], [ -74.10036767999992, 4.71895204000009 ], [ -74.100296601999901, 4.718722021000076 ], [ -74.100215245999948, 4.718545040000038 ], [ -74.100137833999952, 4.718340516000069 ], [ -74.099995166999918, 4.718183022000062 ], [ -74.099842855999952, 4.717998338000086 ], [ -74.099575602999948, 4.717781723000087 ], [ -74.099377394999919, 4.71769880100004 ], [ -74.099249854999925, 4.71760762100007 ], [ -74.099076983999907, 4.717535501000043 ], [ -74.09885843099994, 4.717460061000054 ], [ -74.098561447999941, 4.717567099000064 ], [ -74.098298536999948, 4.717664394000053 ], [ -74.098122351999905, 4.717649833000053 ], [ -74.097974679999936, 4.717579554000054 ], [ -74.097766967999917, 4.717478547000042 ], [ -74.097593606999908, 4.717381360000047 ], [ -74.097340344999907, 4.717393628000082 ], [ -74.0972722059999, 4.717413327000088 ], [ -74.097028585999908, 4.717450666000047 ], [ -74.096887240999934, 4.717462802000057 ], [ -74.096684456999924, 4.71738001600005 ], [ -74.096544813999913, 4.717256914000075 ], [ -74.096403839999937, 4.717069687000048 ], [ -74.096248217999914, 4.716946934000077 ], [ -74.096012082999948, 4.716688372000078 ], [ -74.09579143499991, 4.71640898000004 ], [ -74.095725418999905, 4.716309540000054 ], [ -74.095570155999951, 4.716097313000091 ], [ -74.095353294999938, 4.715994189000071 ], [ -74.095242516999917, 4.715831540000067 ], [ -74.095085719999929, 4.715436193000073 ], [ -74.095057796999924, 4.715193819000092 ], [ -74.094989753999926, 4.714892758000076 ], [ -74.094784814999912, 4.714489144000083 ], [ -74.094594713999925, 4.71424569900006 ], [ -74.094455291999907, 4.714026339000043 ], [ -74.094246460999898, 4.713870390000068 ], [ -74.09400897699993, 4.713765428000045 ], [ -74.093831961999911, 4.713601785000037 ], [ -74.093707666999933, 4.713450859000091 ], [ -74.093510387999913, 4.713193854000053 ], [ -74.093442276999951, 4.712888131000057 ], [ -74.093504658999905, 4.712703465000061 ], [ -74.093552470999953, 4.712480234000054 ], [ -74.093586771999924, 4.712261737000063 ], [ -74.093608192999909, 4.711977210000043 ], [ -74.093532685999946, 4.711756444000059 ], [ -74.093457315999899, 4.711538006000069 ], [ -74.093350764999911, 4.711359257000083 ], [ -74.093063671999914, 4.711067427000046 ], [ -74.092782068999952, 4.710821360000068 ], [ -74.092519463999906, 4.710606862000077 ], [ -74.092254680999929, 4.71039928600004 ], [ -74.09199839799993, 4.710377231000052 ], [ -74.091744496999922, 4.710467460000075 ], [ -74.091512552999916, 4.710628100000065 ], [ -74.091221907999909, 4.710709924000071 ], [ -74.091038478999906, 4.710677140000087 ], [ -74.090872516999923, 4.710497396000051 ], [ -74.090774203999899, 4.710274862000063 ], [ -74.090720371999907, 4.710104167000054 ], [ -74.090577718999953, 4.709838974000093 ], [ -74.090465036999944, 4.709692426000061 ], [ -74.090438387999939, 4.709404219000078 ], [ -74.090478101999906, 4.70922915500006 ], [ -74.090547822999952, 4.708849505000046 ], [ -74.090529389999915, 4.708735379000075 ], [ -74.090488781999909, 4.708651480000071 ], [ -74.090373922999902, 4.708511782000073 ], [ -74.090255175999914, 4.708512053000049 ], [ -74.090118058999906, 4.708508086000052 ], [ -74.089958978999903, 4.708548113000063 ], [ -74.089820308999947, 4.708580798000071 ], [ -74.08972359899991, 4.708541595000042 ], [ -74.089677575999929, 4.708416594000084 ], [ -74.08971256399991, 4.708344774000068 ], [ -74.089674640999931, 4.708171398000047 ], [ -74.089656991999902, 4.707981566000058 ], [ -74.089630318999923, 4.707908825000061 ], [ -74.089546432999953, 4.707722661000048 ], [ -74.089548204999915, 4.707589682000048 ], [ -74.089623182999901, 4.707459748000076 ], [ -74.089737432999925, 4.707354252000073 ], [ -74.089823951999904, 4.707230955000057 ], [ -74.089737321999905, 4.707021839000049 ], [ -74.089638016999913, 4.706861310000079 ], [ -74.089206064999928, 4.706634508000093 ], [ -74.088898414999903, 4.70645079500008 ], [ -74.088609064999901, 4.706268991000059 ], [ -74.088372643999946, 4.706106612000042 ], [ -74.088163676999898, 4.705943741000056 ], [ -74.088065495999899, 4.70583582200004 ], [ -74.087988578999898, 4.705654107000043 ], [ -74.087971569999922, 4.705388644000038 ], [ -74.087892967999949, 4.705129034000038 ], [ -74.087893400999917, 4.705039701000089 ], [ -74.087870473999942, 4.704820138000059 ], [ -74.087877953999907, 4.704629887000067 ], [ -74.087851361999924, 4.704453828000055 ], [ -74.08797603499994, 4.704297696000083 ], [ -74.088108244999944, 4.704070311000066 ], [ -74.088098403999936, 4.70392617300007 ], [ -74.088127495999913, 4.70368260500004 ], [ -74.08811383199992, 4.703029787000048 ], [ -74.088173669999946, 4.702185171000053 ], [ -74.088252107999949, 4.701894715000037 ], [ -74.088313786999947, 4.701677983000081 ], [ -74.088363863999916, 4.701344731000063 ], [ -74.088420759999906, 4.701116562000038 ], [ -74.08848532199994, 4.700929563000045 ], [ -74.088372095999944, 4.700650107000058 ], [ -74.088298059999943, 4.700495794000062 ], [ -74.088276745999906, 4.700351866000062 ], [ -74.088328284999932, 4.70019495300005 ], [ -74.088477743999931, 4.699916721000079 ], [ -74.088539133999916, 4.699794059000055 ], [ -74.088508329999911, 4.699524285000052 ], [ -74.088461335999909, 4.699243280000076 ], [ -74.088460162999922, 4.698973016000082 ], [ -74.088430058999904, 4.698735302000046 ], [ -74.088368630999923, 4.698530355000059 ], [ -74.088128750999942, 4.698526238000056 ], [ -74.087945102999925, 4.69859204100004 ], [ -74.08775526799991, 4.69858001700004 ], [ -74.08769389899993, 4.698487358000079 ], [ -74.087470225999937, 4.698279004000085 ], [ -74.087319758999911, 4.698073554000075 ], [ -74.086932640999919, 4.697914481000055 ], [ -74.08659134699991, 4.697759010000084 ], [ -74.086369777999948, 4.69765136500007 ], [ -74.086216906999937, 4.697549162000087 ], [ -74.085890327999948, 4.697336139000072 ], [ -74.085745134999911, 4.697164939000061 ], [ -74.08556574399995, 4.696889218000081 ], [ -74.085464200999922, 4.69662092100009 ], [ -74.085379335999903, 4.696388994000074 ], [ -74.085370565999938, 4.696079816000065 ], [ -74.085201469999902, 4.695641035000051 ], [ -74.085201371999915, 4.695203328000048 ], [ -74.085144936999939, 4.695016600000088 ], [ -74.085002568999926, 4.694763058000092 ], [ -74.084819224999933, 4.694627024000056 ], [ -74.08467227999995, 4.69437348200006 ], [ -74.084245122999903, 4.694155718000047 ], [ -74.083658895999918, 4.693867878000049 ], [ -74.082917957999939, 4.693606225000053 ], [ -74.082427869999947, 4.693437888000062 ], [ -74.081850922999934, 4.69326671500005 ], [ -74.081633499999953, 4.69324381000007 ], [ -74.081374550999953, 4.693205792000072 ], [ -74.081087998999919, 4.693264517000046 ], [ -74.080948433999936, 4.693143741000085 ], [ -74.080810571999905, 4.692887728000073 ], [ -74.080686657999934, 4.692535106000093 ], [ -74.080561610999951, 4.692235237000091 ], [ -74.080383645999916, 4.691812836000054 ], [ -74.08030885799991, 4.691511914000046 ], [ -74.080295233999948, 4.691191366000055 ], [ -74.080335032999926, 4.690910865000092 ], [ -74.080343281999944, 4.690759385000092 ], [ -74.080275099999938, 4.690559239000038 ], [ -74.080162634999908, 4.690426388000049 ], [ -74.08004031999991, 4.690257098000075 ], [ -74.0798165839999, 4.690044083000089 ], [ -74.079606641999931, 4.689835376000076 ], [ -74.079454214999942, 4.68953840100005 ], [ -74.079387512999915, 4.689301460000081 ], [ -74.079283662999899, 4.688923205000037 ], [ -74.079196921999937, 4.688489726000057 ], [ -74.079101787999946, 4.688202925000041 ], [ -74.078982800999938, 4.687868595000054 ], [ -74.078836501999945, 4.687537087000067 ], [ -74.078674073999935, 4.687304445000052 ], [ -74.078517983999916, 4.687053372000094 ], [ -74.078418965999902, 4.68690421000008 ], [ -74.078334512999902, 4.686800600000083 ], [ -74.07827033399991, 4.686680467000087 ], [ -74.077327791999949, 4.685359689000052 ], [ -74.083860080999898, 4.680143125000086 ], [ -74.084095043999923, 4.679974292000054 ], [ -74.084334938999916, 4.679771071000062 ], [ -74.084725475999903, 4.679391029000044 ], [ -74.084958828999902, 4.679164925000066 ], [ -74.085178449999944, 4.678943195000045 ], [ -74.085399070999927, 4.678641243000072 ], [ -74.085543309999935, 4.678427700000043 ], [ -74.085685724999905, 4.678170655000088 ], [ -74.086022510999953, 4.67751751600008 ], [ -74.089354312999944, 4.671710759000064 ], [ -74.093715416999942, 4.666065227000047 ], [ -74.103415758999915, 4.653507285000046 ], [ -74.1176807249999, 4.675889565000091 ], [ -74.120898437999927, 4.681014597000058 ], [ -74.121315938999942, 4.681599284000072 ], [ -74.121681710999951, 4.682114690000049 ], [ -74.122087327999907, 4.682550368000079 ], [ -74.122477104999916, 4.682972132000089 ], [ -74.123145465999926, 4.683575899000061 ], [ -74.12367876299993, 4.684024646000069 ], [ -74.124160329999938, 4.684406159000048 ], [ -74.124650902999917, 4.684803915000089 ], [ -74.124052871999936, 4.685536509000087 ], [ -74.123307470999919, 4.685813594000081 ], [ -74.122896615999935, 4.685994083000082 ], [ -74.122304515999929, 4.686243276000084 ], [ -74.121819893999941, 4.686475528000074 ], [ -74.121454651999898, 4.686661171000083 ], [ -74.118400273999953, 4.688651400000083 ], [ -74.120378181999911, 4.692221161000077 ], [ -74.122947738999926, 4.693624087000046 ], [ -74.145124207999913, 4.710406224000053 ], [ -74.154778050999937, 4.717644817000064 ], [ -74.155469576999906, 4.717982201000041 ], [ -74.155469585999924, 4.717982196000094 ] ] ] ] } }
]
}
