{
"type": "FeatureCollection",
"name": "teusaquillo",
"crs": { "type": "name", "properties": { "name": "urn:ogc:def:crs:OGC:1.3:CRS84" } },
"features": [
{ "type": "Feature", "properties": { "LocNombre": "TEUSAQUILLO", "LocAAdmini": "Acuerdo 8 de 1977", "LocArea": 14193168.127499999, "LocCodigo": "13", "SHAPE_Leng": 0.14831441196, "SHAPE_Area": 0.00115583267 }, "geometry": { "type": "MultiPolygon", "coordinates": [ [ [ [ -74.093715416999942, 4.666065227000047 ], [ -74.093318192999902, 4.665740127000049 ], [ -74.092901896999933, 4.665430278000088 ], [ -74.092363223999939, 4.664867032000075 ], [ -74.092012750999913, 4.664409097000089 ], [ -74.0917095719999, 4.663999893000039 ], [ -74.091202035999913, 4.663132344000076 ], [ -74.087884220999911, 4.658372345000089 ], [ -74.087514195999916, 4.65783170900005 ], [ -74.087088150999932, 4.657203356000082 ], [ -74.086676881999949, 4.656675991000043 ], [ -74.086302918999934, 4.656087263000074 ], [ -74.085934861999931, 4.655571838000071 ], [ -74.085700457999906, 4.655142793000039 ], [ -74.085455484999898, 4.654830556000093 ], [ -74.08518777799992, 4.654508854000085 ], [ -74.084828926999933, 4.654172240000094 ], [ -74.084528200999898, 4.653939445000049 ], [ -74.083930334999934, 4.653547157000048 ], [ -74.083613208999907, 4.65334628100004 ], [ -74.083147714999939, 4.653141151000057 ], [ -74.082650408999939, 4.652921966000065 ], [ -74.082207081999911, 4.652774536000038 ], [ -74.081398821999926, 4.65259945400004 ], [ -74.080522149999922, 4.652416741000081 ], [ -74.077609127999949, 4.651858318000052 ], [ -74.064634739999917, 4.649647362000053 ], [ -74.066186909999942, 4.641458941000053 ], [ -74.068403970999952, 4.628822476000039 ], [ -74.068405989999917, 4.628810954000073 ], [ -74.068407214999922, 4.628803970000092 ], [ -74.068562656999916, 4.627917707000051 ], [ -74.068568700999947, 4.627883238000038 ], [ -74.069441723999944, 4.622907897000061 ], [ -74.069528067999897, 4.622435808000091 ], [ -74.069613968999931, 4.622092248000058 ], [ -74.069711711999901, 4.621638521000079 ], [ -74.069892089999939, 4.621081909000054 ], [ -74.07007639099993, 4.620685890000061 ], [ -74.070302151999897, 4.620228152000038 ], [ -74.072829116999912, 4.61541733200005 ], [ -74.072962043999951, 4.615584083000044 ], [ -74.077538123999943, 4.62205055600009 ], [ -74.078828208999937, 4.623891494000077 ], [ -74.083198946999914, 4.624698289000094 ], [ -74.091451503999906, 4.625717200000054 ], [ -74.106800146999944, 4.64146342500004 ], [ -74.110445215999903, 4.645137208000051 ], [ -74.108383374999903, 4.647210012000073 ], [ -74.10805959299995, 4.647544946000039 ], [ -74.10775446699995, 4.647855021000055 ], [ -74.107496490999949, 4.648225270000069 ], [ -74.103415758999915, 4.653507285000046 ], [ -74.093715416999942, 4.666065227000047 ] ] ] ] } }
]
}
