{
"type": "FeatureCollection",
"name": "engativa",
"crs": { "type": "name", "properties": { "name": "urn:ogc:def:crs:EPSG::9377" } },
"features": [
{ "type": "Feature", "properties": { "LocNombre": "ENGATIVA", "LocAAdmini": "Acuerdo 8 de 1977", "LocArea": 35880967.347099997, "LocCodigo": "10", "SHAPE_Leng": 0.29196621565000003, "SHAPE_Area": 0.0029222461 }, "geometry": { "type": "MultiPolygon", "coordinates": [ [ [ [ 4871900.576874878257513, 2079437.714051254792139 ], [ 4871900.576986854895949, 2079437.714714164147153 ], [ 4871878.956068466417491, 2079448.270046577788889 ], [ 4871844.090674417093396, 2079460.285954497288913 ], [ 4871824.467781061306596, 2079440.63806333579123 ], [ 4871814.994837298989296, 2079372.831461718305945 ], [ 4871802.976942202076316, 2079348.745334412204102 ], [ 4871754.795409334823489, 2079379.134892269736156 ], [ 4871721.831796330399811, 2079423.465226680971682 ], [ 4871671.109039949253201, 2079469.693262270186096 ], [ 4871629.256821413524449, 2079521.630775327095762 ], [ 4871601.761672005988657, 2079544.233818898210302 ], [ 4871568.400417542085052, 2079571.651763527886942 ], [ 4871542.404027989134192, 2079594.442210376728326 ], [ 4871484.728318361565471, 2079628.633752699708566 ], [ 4871434.025123791769147, 2079644.441979334456846 ], [ 4871385.865160168148577, 2079657.718613058095798 ], [ 4871360.499722100794315, 2079687.481106771156192 ], [ 4871345.889790596440434, 2079769.213806245708838 ], [ 4871345.847658849321306, 2079828.135231079999357 ], [ 4871355.322179304435849, 2079890.887081105262041 ], [ 4871371.754645901732147, 2079962.48829065146856 ], [ 4871391.985365139320493, 2080023.334032436832786 ], [ 4871424.906662438996136, 2080086.07695281622 ], [ 4871464.800104410387576, 2080136.160788199398667 ], [ 4871509.114361010491848, 2080189.404214420355856 ], [ 4871559.155942684970796, 2080232.528208672767505 ], [ 4871628.193403678946197, 2080272.483700131298974 ], [ 4871686.488430277444422, 2080274.415062481537461 ], [ 4871723.235038350336254, 2080276.342092823470011 ], [ 4871744.156255668960512, 2080265.578056605067104 ], [ 4871730.243914420716465, 2080213.613026662031189 ], [ 4871693.529512033797801, 2080152.764637151733041 ], [ 4871675.786244306713343, 2080140.07686063204892 ], [ 4871677.702743040397763, 2080121.072537455707788 ], [ 4871720.187299028038979, 2080071.04197755898349 ], [ 4871783.560057211667299, 2080044.463258428499103 ], [ 4871868.479563319124281, 2080022.973872682079673 ], [ 4871907.773009372875094, 2080018.55306171043776 ], [ 4871979.375384730286896, 2080014.798097735270858 ], [ 4872037.676093507558107, 2080014.201820697402582 ], [ 4872097.860829473473132, 2080011.06512934458442 ], [ 4872133.992110631428659, 2080003.482738925609738 ], [ 4872220.799800338223577, 2079981.99020415218547 ], [ 4872277.207106252200902, 2079966.172480262815952 ], [ 4872341.212797647342086, 2079959.882505218032748 ], [ 4872385.561572185717523, 2079961.807028341572732 ], [ 4872428.001763998530805, 2079981.476935231126845 ], [ 4872468.514332502149045, 2080067.673573533073068 ], [ 4872494.461481531150639, 2080105.702464357949793 ], [ 4872529.916428486816585, 2080160.209009990328923 ], [ 4872565.99512280523777, 2080217.262138142250478 ], [ 4872593.252341100946069, 2080263.494998195208609 ], [ 4872666.811354346573353, 2080310.29180278046988 ], [ 4872760.450239855796099, 2080353.603770743822679 ], [ 4872885.233893525786698, 2080420.837173080304638 ], [ 4872944.138094640336931, 2080455.08774056029506 ], [ 4873032.188185340724885, 2080500.76304542995058 ], [ 4873103.13386247958988, 2080534.385033092927188 ], [ 4873160.148117011412978, 2080567.990992448525503 ], [ 4873231.088794107548892, 2080607.957994504831731 ], [ 4873298.870482675731182, 2080639.680811166996136 ], [ 4873352.081991042941809, 2080658.081889471272007 ], [ 4873428.741900125518441, 2080668.89670406258665 ], [ 4873516.811225728131831, 2080688.590008902363479 ], [ 4873579.52781895082444, 2080706.382038163486868 ], [ 4873649.208407000638545, 2080734.925116250524297 ], [ 4873740.430827302858233, 2080778.066153371706605 ], [ 4873775.264300733804703, 2080797.722890763776377 ], [ 4873801.240509455092251, 2080808.504743468016386 ], [ 4873831.64578998927027, 2080826.27242400450632 ], [ 4873873.459183949045837, 2080833.266189650865272 ], [ 4873907.0349549241364, 2080842.78680260037072 ], [ 4873943.150826580822468, 2080840.283960824133828 ], [ 4873959.644751164130867, 2080813.666106462245807 ], [ 4873985.658621471375227, 2080748.42285142512992 ], [ 4874004.70141514390707, 2080686.968540401430801 ], [ 4874040.246348148211837, 2080584.988622300093994 ], [ 4874060.52727890200913, 2080573.583562432788312 ], [ 4874108.682032864540815, 2080573.61283831181936 ], [ 4874172.044514369219542, 2080576.184684819774702 ], [ 4874230.326371863484383, 2080597.753812088631094 ], [ 4874306.348310451023281, 2080619.347961567342281 ], [ 4874374.76705114543438, 2080644.732201698701829 ], [ 4874456.476248802617192, 2080688.497803062666208 ], [ 4874510.31134622450918, 2080734.783420500112697 ], [ 4874554.636081125587225, 2080782.958112267544493 ], [ 4874568.544778285548091, 2080839.994932921370491 ], [ 4874618.587598416954279, 2080858.401056975126266 ], [ 4874662.314856695011258, 2080857.157749304082245 ], [ 4874722.523018253035843, 2080826.135799109237269 ], [ 4874777.662360013462603, 2080797.66664631315507 ], [ 4874794.165425958111882, 2080757.757502529304475 ], [ 4874770.747475114651024, 2080708.330617070198059 ], [ 4874763.817926844581962, 2080643.04841689276509 ], [ 4874765.749405965209007, 2080584.12808423768729 ], [ 4874796.199374626390636, 2080520.78181138378568 ], [ 4874830.462069110013545, 2080440.961648490745574 ], [ 4874845.058036630041897, 2080404.224436596268788 ], [ 4874880.540552517399192, 2080401.074949658010155 ], [ 4874931.834623250178993, 2080449.261627406114712 ], [ 4874989.445558406412601, 2080532.293038729112595 ], [ 4875041.56390040833503, 2080583.046892757061869 ], [ 4875039.363986399956048, 2080585.69861840410158 ], [ 4875109.770812046714127, 2080645.148098438745365 ], [ 4875135.723112898878753, 2080686.343541433801875 ], [ 4875166.752870101481676, 2080723.11491614789702 ], [ 4875155.950704433955252, 2080781.404029798693955 ], [ 4875134.376116857863963, 2080825.745074630482122 ], [ 4875075.410273660905659, 2080906.821367730153725 ], [ 4875023.411602547392249, 2080966.357792753493413 ], [ 4874999.946991710923612, 2081009.423429541289806 ], [ 4874964.416027153842151, 2081107.613519880222157 ], [ 4874932.03767859376967, 2081203.270939970621839 ], [ 4874910.413518353365362, 2081343.92519647651352 ], [ 4874916.07310985121876, 2081419.32973804185167 ], [ 4874959.141939685679972, 2081456.740524328546599 ], [ 4875037.060946537181735, 2081473.25423375540413 ], [ 4875098.511342491023242, 2081498.636279445840046 ], [ 4875101.655637362040579, 2081539.190137556521222 ], [ 4875036.377768806181848, 2081567.030782815301791 ], [ 4875021.484169960021973, 2081567.894678846932948 ], [ 4875018.561016827821732, 2081568.065202006138861 ], [ 4875014.762160228565335, 2081738.402280380483717 ], [ 4875029.803533405996859, 2081762.985300508560613 ], [ 4875042.849461128935218, 2081789.11678480845876 ], [ 4875085.965634887106717, 2081828.723767017945647 ], [ 4875112.571672664023936, 2081847.558796873316169 ], [ 4875157.676854143850505, 2081867.643212083028629 ], [ 4875197.04254365991801, 2081876.420577627141029 ], [ 4875233.524960709735751, 2081878.654415784403682 ], [ 4875277.469406292773783, 2081871.931752617238089 ], [ 4875335.302714012563229, 2081863.227048461791128 ], [ 4875509.559565021656454, 2081836.822883239714429 ], [ 4875597.404415098950267, 2081820.333865528693423 ], [ 4875663.194753660820425, 2081818.843104704516008 ], [ 4875711.955679127015173, 2081812.799101655837148 ], [ 4875760.654994041658938, 2081802.45521559426561 ], [ 4875773.602662330493331, 2081788.33836437179707 ], [ 4875773.507149228826165, 2081730.88117050123401 ], [ 4875770.824184569530189, 2081703.826874369289726 ], [ 4875770.409404518082738, 2081642.069850536994636 ], [ 4875770.483333690091968, 2081630.18310547969304 ], [ 4875781.072571181692183, 2081610.536936450749636 ], [ 4875804.640576051548123, 2081595.239777515642345 ], [ 4875823.081720847636461, 2081575.728805463528261 ], [ 4875836.028529018163681, 2081561.112563168164343 ], [ 4875860.410158553160727, 2081532.905121276155114 ], [ 4875875.557783577591181, 2081513.446564522571862 ], [ 4875912.615487869828939, 2081486.061032740166411 ], [ 4875947.019118125550449, 2081467.826878035906702 ], [ 4875986.825162639841437, 2081455.327917198184878 ], [ 4876012.694935894571245, 2081458.492681392235681 ], [ 4876078.870646585710347, 2081449.407391609158367 ], [ 4876145.215964031405747, 2081434.241932551143691 ], [ 4876176.44788018334657, 2081423.661715984577313 ], [ 4876201.236039189621806, 2081405.318625381682068 ], [ 4876221.965958943590522, 2081387.029375636717305 ], [ 4876240.113716616295278, 2081364.732501240912825 ], [ 4876262.376546679995954, 2081329.723275108030066 ], [ 4876278.325142037123442, 2081313.291419906774536 ], [ 4876298.188446784391999, 2081304.134853223105893 ], [ 4876336.516403120942414, 2081294.45582899148576 ], [ 4876391.313102453015745, 2081285.529825312783942 ], [ 4876434.724199341610074, 2081277.286228547105566 ], [ 4876449.310924357734621, 2081253.786115767899901 ], [ 4876463.678965337574482, 2081216.097192441113293 ], [ 4876469.451442006975412, 2081195.522409342695028 ], [ 4876476.550470299087465, 2081179.464432446984574 ], [ 4876481.842467212118208, 2081160.919688659720123 ], [ 4876486.627383545972407, 2081142.617565226275474 ], [ 4876488.49353622738272, 2081114.994368737796322 ], [ 4876487.607809904962778, 2081089.185814515687525 ], [ 4876487.450244640000165, 2081078.813848679885268 ], [ 4876487.409605069085956, 2081059.083998826565221 ], [ 4876488.56313793733716, 2081034.754944471409544 ], [ 4876486.645568510517478, 2081007.949659012723714 ], [ 4876491.250992763787508, 2080994.205772422254086 ], [ 4876498.197395067662001, 2080985.000272769946605 ], [ 4876507.181249761022627, 2080976.01021390594542 ], [ 4876522.82388935610652, 2080972.737326862290502 ], [ 4876537.958988611586392, 2080969.215605235425755 ], [ 4876550.075745061039925, 2080967.010532361920923 ], [ 4876577.266170493327081, 2080956.99102685181424 ], [ 4876608.119197458028793, 2080929.64706832356751 ], [ 4876625.73325751721859, 2080896.307827516691759 ], [ 4876657.586760623380542, 2080860.455233964370564 ], [ 4876683.245510981418192, 2080830.575602036667988 ], [ 4876727.159138593822718, 2080786.594200460007414 ], [ 4876774.815503203310072, 2080745.236646445002407 ], [ 4876799.001243222504854, 2080725.958081857068464 ], [ 4876826.328492395579815, 2080714.073213916271925 ], [ 4876845.39692944008857, 2080710.404704377055168 ], [ 4876878.389152671210468, 2080706.993875290034339 ], [ 4876904.787135842256248, 2080703.968573632417247 ], [ 4876945.682067492976785, 2080684.506436206400394 ], [ 4876973.276216424070299, 2080659.220579651650041 ], [ 4876996.292359946295619, 2080621.931140853324905 ], [ 4877013.628116461448371, 2080590.098911349894479 ], [ 4877029.43502894975245, 2080558.752739573130384 ], [ 4877044.749391167424619, 2080526.88451764290221 ], [ 4877065.664660117588937, 2080493.360484032891691 ], [ 4877089.61430287733674, 2080473.060057793976739 ], [ 4877127.117132602259517, 2080445.931685068178922 ], [ 4877153.389498884789646, 2080423.66065208800137 ], [ 4877196.00069360435009, 2080394.346058940514922 ], [ 4877229.908181819133461, 2080382.848302147118375 ], [ 4877246.343044685199857, 2080358.345678374869749 ], [ 4877265.355425283312798, 2080344.554957880405709 ], [ 4877283.360280071385205, 2080330.203551928512752 ], [ 4877299.666032135486603, 2080312.546064084395766 ], [ 4877320.14949341583997, 2080301.031379284802824 ], [ 4877346.732361149042845, 2080301.307469809427857 ], [ 4877364.262848385609686, 2080311.518045621691272 ], [ 4877384.893856784328818, 2080318.523536322405562 ], [ 4877399.203092613257468, 2080325.125763524789363 ], [ 4877437.43106761854142, 2080325.874045123113319 ], [ 4877454.99163621198386, 2080321.404013546649367 ], [ 4877486.661022163927555, 2080320.500947076594457 ], [ 4877513.664995891973376, 2080325.326176305999979 ], [ 4877583.66563106700778, 2080307.205061232438311 ], [ 4877598.591170972213149, 2080295.075214383658022 ], [ 4877611.004069186747074, 2080268.987353751435876 ], [ 4877606.462270741350949, 2080255.227614507311955 ], [ 4877608.275205627083778, 2080214.235094827832654 ], [ 4877599.831973677501082, 2080153.786952978465706 ], [ 4877603.736757161095738, 2080122.46871382324025 ], [ 4877600.983221529982984, 2080095.055998653406277 ], [ 4877610.410489561036229, 2080066.37414910714142 ], [ 4877624.142922782339156, 2080050.172557270852849 ], [ 4877642.920029726810753, 2080035.601335808634758 ], [ 4877670.884600410237908, 2080017.151869509834796 ], [ 4877703.2772948872298, 2080005.383479155600071 ], [ 4877735.157470250502229, 2079980.917975161690265 ], [ 4877753.935921645723283, 2079953.180709518026561 ], [ 4877773.993507171049714, 2079924.707612629747018 ], [ 4877791.163599506951869, 2079901.226371104596183 ], [ 4877814.063137321732938, 2079882.941377813462168 ], [ 4877840.433804689906538, 2079868.248567573726177 ], [ 4877887.428812158294022, 2079861.084152322029695 ], [ 4877923.328805942088366, 2079851.128280344884843 ], [ 4877964.660076076164842, 2079835.989356295904145 ], [ 4877988.972951835021377, 2079822.790362553205341 ], [ 4877999.706050905399024, 2079805.025197675218806 ], [ 4878004.053420889191329, 2079776.991790510248393 ], [ 4878007.81636075116694, 2079739.835837701102719 ], [ 4878001.662604814395308, 2079704.756755604874343 ], [ 4877998.257915540598333, 2079684.68906517396681 ], [ 4878003.84786712564528, 2079657.691531764809042 ], [ 4878009.789280558004975, 2079625.909410616150126 ], [ 4878010.593017119914293, 2079597.561892123194411 ], [ 4878004.911171508952975, 2079564.526900640456006 ], [ 4878010.302006305195391, 2079535.001129125943407 ], [ 4878018.142700761556625, 2079509.568457427434623 ], [ 4878027.132248374633491, 2079489.995405684458092 ], [ 4878035.679697182960808, 2079467.379172083223239 ], [ 4878051.470595516264439, 2079449.948965603252873 ], [ 4878068.32604755461216, 2079429.512212339090183 ], [ 4878097.920288844965398, 2079405.526537492871284 ], [ 4878119.882406499236822, 2079396.327845131279901 ], [ 4878134.007676189765334, 2079386.228904360439628 ], [ 4878153.162410351447761, 2079378.228424072731286 ], [ 4878177.38162393681705, 2079369.853054368402809 ], [ 4878210.328680249862373, 2079381.630260386737064 ], [ 4878239.496247477829456, 2079392.336701833643019 ], [ 4878259.028457094915211, 2079390.696715933503583 ], [ 4878275.389543606899679, 2079382.904128700960428 ], [ 4878298.402296650223434, 2079371.705196582479402 ], [ 4878317.607006686739624, 2079360.934435434173793 ], [ 4878345.689908402040601, 2079362.245973982848227 ], [ 4878353.248340643942356, 2079364.411077390192077 ], [ 4878380.266531369648874, 2079368.494994479464367 ], [ 4878395.94045667629689, 2079369.811506097204983 ], [ 4878418.40999480523169, 2079360.627140244236216 ], [ 4878433.871681411750615, 2079346.998343013692647 ], [ 4878449.469796361401677, 2079326.282645255327225 ], [ 4878466.703249563463032, 2079312.689638501266018 ], [ 4878492.840087600983679, 2079284.073878473602235 ], [ 4878517.256181583739817, 2079253.158838715637103 ], [ 4878524.558518348261714, 2079242.157876005163416 ], [ 4878541.736651062965393, 2079218.676882119383663 ], [ 4878565.763519905507565, 2079207.242498747073114 ], [ 4878578.017942943610251, 2079189.248302907450125 ], [ 4878595.334387817420065, 2079145.529853817308322 ], [ 4878598.388305444270372, 2079118.739423883147538 ], [ 4878605.880408668890595, 2079085.456308457767591 ], [ 4878628.533296496607363, 2079040.815877919783816 ], [ 4878649.56882075406611, 2079013.878854908980429 ], [ 4878664.98941549193114, 2078989.612376804929227 ], [ 4878688.116868624463677, 2078972.341584388865158 ], [ 4878714.430127040483057, 2078960.700558186741546 ], [ 4878734.028607127256691, 2078942.585030674701557 ], [ 4878747.783874186687171, 2078925.884077919414267 ], [ 4878769.612996918149292, 2078897.4472965314053 ], [ 4878777.111945545300841, 2078863.648996936623007 ], [ 4878770.163216693326831, 2078843.251795989461243 ], [ 4878764.82327913492918, 2078818.59011621423997 ], [ 4878760.982219795696437, 2078794.449256850406528 ], [ 4878758.557813175022602, 2078763.008964837295935 ], [ 4878766.891552409157157, 2078738.598259258782491 ], [ 4878775.210511701181531, 2078714.444854706292972 ], [ 4878786.993614033795893, 2078694.672194656683132 ], [ 4878818.775126373395324, 2078662.371213829144835 ], [ 4878849.955872162245214, 2078635.128624501172453 ], [ 4878879.035657158121467, 2078611.378144778776914 ], [ 4878908.358147545717657, 2078588.392274838639423 ], [ 4878936.77028932608664, 2078585.910420662723482 ], [ 4878964.937740076333284, 2078595.837857395876199 ], [ 4878990.682825795374811, 2078613.550457896664739 ], [ 4879022.922873811796308, 2078622.542673740070313 ], [ 4879043.255296567454934, 2078618.887796979630366 ], [ 4879061.625631569884717, 2078598.994935870170593 ], [ 4879072.487849316559732, 2078574.38494933443144 ], [ 4879078.427100257016718, 2078555.511569273192436 ], [ 4879094.198262046091259, 2078526.179521534126252 ], [ 4879106.666825061663985, 2078509.964508909732103 ], [ 4879109.571818757802248, 2078478.109221060061827 ], [ 4879105.138200748711824, 2078458.769224312156439 ], [ 4879097.342150176875293, 2078416.824978444259614 ], [ 4879099.366245172917843, 2078404.209358128951862 ], [ 4879103.854269170202315, 2078394.930377805605531 ], [ 4879116.565424488857388, 2078379.472010739380494 ], [ 4879129.731840989552438, 2078379.481390443164855 ], [ 4879144.934344830922782, 2078379.019236120395362 ], [ 4879162.579643443226814, 2078383.415197220863774 ], [ 4879177.960663101635873, 2078387.003308198414743 ], [ 4879188.676857688464224, 2078382.654117411235347 ], [ 4879193.758202551864088, 2078368.831896517891437 ], [ 4879189.86642848700285, 2078360.900899660307914 ], [ 4879194.041321481578052, 2078341.734008277766407 ], [ 4879195.965447041206062, 2078320.75202280539088 ], [ 4879198.910334604792297, 2078312.708569666137919 ], [ 4879208.179295822046697, 2078292.120483197737485 ], [ 4879207.959882103838027, 2078277.424863758962601 ], [ 4879199.624086151830852, 2078263.078426322434098 ], [ 4879186.938116062432528, 2078251.439506524940953 ], [ 4879177.323819777928293, 2078237.828543305164203 ], [ 4879186.893078586086631, 2078214.703482903074473 ], [ 4879197.876100189983845, 2078196.945733428001404 ], [ 4879245.730850983411074, 2078171.806401457637548 ], [ 4879279.810725375078619, 2078151.45049856393598 ], [ 4879311.86188087053597, 2078131.308747871313244 ], [ 4879338.047745854593813, 2078113.3228782590013 ], [ 4879361.189497497864068, 2078095.287391542457044 ], [ 4879372.057009209878743, 2078083.343967575347051 ], [ 4879380.554111622273922, 2078063.248796603642404 ], [ 4879382.394328270107508, 2078033.908727117814124 ], [ 4879391.064861598424613, 2078005.204853060189635 ], [ 4879391.001473482698202, 2077995.332464085659012 ], [ 4879393.505778337828815, 2077971.063924307702109 ], [ 4879392.643663736060262, 2077950.039995 ], [ 4879395.561829498037696, 2077930.578583438647911 ], [ 4879381.711455670185387, 2077913.345487095881253 ], [ 4879367.013122205622494, 2077888.239305720664561 ], [ 4879368.07946256455034, 2077872.308473144192249 ], [ 4879364.811869786120951, 2077845.396049732342362 ], [ 4879366.214550152420998, 2077773.248769219731912 ], [ 4879359.434460428543389, 2077679.917995421215892 ], [ 4879350.687395133078098, 2077647.832353870617226 ], [ 4879343.811225146986544, 2077623.891284091863781 ], [ 4879338.201414305716753, 2077587.071227758191526 ], [ 4879331.853603446856141, 2077561.865393503801897 ], [ 4879324.662879326380789, 2077541.210705831646919 ], [ 4879337.169139021076262, 2077510.307617308571935 ], [ 4879345.351603688672185, 2077493.241234299261123 ], [ 4879347.69011174980551, 2077477.331630785251036 ], [ 4879341.948539254255593, 2077459.999589607818052 ], [ 4879325.328843543305993, 2077429.27711509889923 ], [ 4879318.50089033972472, 2077415.731957561336458 ], [ 4879321.86998887360096, 2077385.913086676504463 ], [ 4879327.032289966009557, 2077354.850250262068585 ], [ 4879327.115861835889518, 2077324.982343781040981 ], [ 4879330.412874602712691, 2077298.706645357888192 ], [ 4879337.188700889237225, 2077276.046724418876693 ], [ 4879363.78564700204879, 2077275.550356055377051 ], [ 4879384.159664222039282, 2077282.790767877595499 ], [ 4879405.206307436339557, 2077281.42921870877035 ], [ 4879411.994913560338318, 2077271.178608108777553 ], [ 4879436.759746129624546, 2077248.114210185129195 ], [ 4879453.408081436529756, 2077225.383371218340471 ], [ 4879496.304031583480537, 2077207.737021701876074 ], [ 4879534.119693011976779, 2077190.496660766191781 ], [ 4879558.668579087592661, 2077178.562331520719454 ], [ 4879575.601234272122383, 2077167.241250862600282 ], [ 4879611.775467656552792, 2077143.643227581633255 ], [ 4879627.844972895458341, 2077124.69842043123208 ], [ 4879647.68840829282999, 2077094.196809984277934 ], [ 4879658.9014099733904, 2077064.529047328978777 ], [ 4879668.271413382142782, 2077038.883512937230989 ], [ 4879669.190824846737087, 2077004.713832372799516 ], [ 4879687.864868816919625, 2076956.193774469895288 ], [ 4879687.800727766938508, 2076907.821470556547865 ], [ 4879694.026212683878839, 2076887.175908722681925 ], [ 4879709.768461334519088, 2076859.131766671780497 ], [ 4879730.074247644282877, 2076844.066741776652634 ], [ 4879746.324015593156219, 2076816.021826007636264 ], [ 4879793.649702440015972, 2076791.882719131652266 ], [ 4879858.60103768389672, 2076759.972043774323538 ], [ 4879940.711185122840106, 2076730.928900009486824 ], [ 4879995.023171722888947, 2076712.24146801722236 ], [ 4880058.96558341011405, 2076693.225784249836579 ], [ 4880083.069446713663638, 2076690.657242657151073 ], [ 4880111.775116167031229, 2076686.411417766241357 ], [ 4880143.557903189212084, 2076692.852216767147183 ], [ 4880159.012204144150019, 2076679.481033169897273 ], [ 4880174.254613466560841, 2076651.164729551877826 ], [ 4880187.934009753167629, 2076612.174290496623144 ], [ 4880201.74804566334933, 2076579.013543274952099 ], [ 4880221.408742431551218, 2076532.302401300054044 ], [ 4880229.649925238452852, 2076499.033892223145813 ], [ 4880231.105917269363999, 2076463.606921619735658 ], [ 4880226.645201735198498, 2076432.614790653809905 ], [ 4880225.704736574552953, 2076415.875729958061129 ], [ 4880233.230644940398633, 2076393.745387515285984 ], [ 4880245.67812382709235, 2076379.044431498972699 ], [ 4880259.211567793041468, 2076360.314821353647858 ], [ 4880283.983134768903255, 2076336.735713892849162 ], [ 4880307.22597065847367, 2076313.63506333110854 ], [ 4880324.076525234617293, 2076280.789510845672339 ], [ 4880331.432115491479635, 2076254.593125787563622 ], [ 4880342.88263797480613, 2076212.773406610358506 ], [ 4880352.426730317994952, 2076164.853660060791299 ], [ 4880362.926414814777672, 2076133.142266554990783 ], [ 4880376.062854166142642, 2076096.174247834598646 ], [ 4880392.228154831565917, 2076059.51344082201831 ], [ 4880410.198675474151969, 2076033.775835818145424 ], [ 4880427.463315359316766, 2076006.002459909999743 ], [ 4880438.417120655998588, 2075989.501280500320718 ], [ 4880447.76369892526418, 2075978.03666043584235 ], [ 4880454.859480630606413, 2075964.749498518183827 ], [ 4880559.144757053814828, 2075818.626203275052831 ], [ 4879833.948913069441915, 2075243.244802549015731 ], [ 4879807.866997913457453, 2075224.626808136468753 ], [ 4879781.232331617735326, 2075202.20934792351909 ], [ 4879737.863999573513865, 2075160.276697018649429 ], [ 4879711.950772553682327, 2075135.329264406813309 ], [ 4879687.560907009057701, 2075110.862867368618026 ], [ 4879663.046443400904536, 2075077.53108043060638 ], [ 4879647.016455880366266, 2075053.956541812047362 ], [ 4879631.181277839466929, 2075025.574159420095384 ], [ 4879593.726140494458377, 2074953.451592516386881 ], [ 4879223.293835163116455, 2074312.301287596579641 ], [ 4878738.750492472201586, 2073689.146074971649796 ], [ 4877660.961450077593327, 2072303.001870908308774 ], [ 4876083.088102901354432, 2074779.045831902883947 ], [ 4875727.200001748278737, 2075346.002930879592896 ], [ 4875681.009466898627579, 2075410.693096617702395 ], [ 4875640.54263558331877, 2075467.717604268807918 ], [ 4875595.643656344152987, 2075515.938131365925074 ], [ 4875552.49865626450628, 2075562.618193019414321 ], [ 4875478.495767461135983, 2075629.461667810566723 ], [ 4875419.441806488670409, 2075679.14932374516502 ], [ 4875366.111964680254459, 2075721.397529307520017 ], [ 4875311.786447781138122, 2075765.442471774527803 ], [ 4875378.227377451956272, 2075846.298322721384466 ], [ 4875460.928251618519425, 2075876.787753554526716 ], [ 4875506.516738097183406, 2075896.661409838590771 ], [ 4875572.214195497334003, 2075924.095692856004462 ], [ 4875625.991209300234914, 2075949.67686427058652 ], [ 4875666.522837703116238, 2075970.128277122043073 ], [ 4876005.54943229816854, 2076189.535762252518907 ], [ 4875786.866509089246392, 2076584.395404202397913 ], [ 4875502.199505698867142, 2076739.895158536033705 ], [ 4873046.27879230119288, 2078598.55930998083204 ], [ 4871977.19137504696846, 2079400.301238521933556 ], [ 4871900.577873702161014, 2079437.714602171909064 ], [ 4871900.576874878257513, 2079437.714051254792139 ] ] ] ] } }
]
}
